WNISAT 1R               
1 42835U 17042L   26068.86192839  .00004802  00000+0  37840-3 0  9992
2 42835  97.4515 228.7079 0013301 131.3338 228.9034 15.01153186471607
STARLINK-36226          
1 67209U 25304T   26068.71675558  .00003508  00000+0  30156-3 0  9997
2 67209  70.0021 174.5944 0003132 273.3246  86.7555 14.98337075 13889
