[{"OBJECT_NAME":"WNISAT 1R","OBJECT_ID":"2017-042L","EPOCH":"2026-03-09T20:41:10.613760","MEAN_MOTION":15.01153186,"ECCENTRICITY":0.00133015,"INCLINATION":97.4515,"RA_OF_ASC_NODE":228.7079,"ARG_OF_PERICENTER":131.3338,"MEAN_ANOMALY":228.9034,"EPHEMERIS_TYPE":0,"CLASSIFICATION_TYPE":"U","NORAD_CAT_ID":42835,"ELEMENT_SET_NO":999,"REV_AT_EPOCH":47160,"BSTAR":0.00037839839,"MEAN_MOTION_DOT":4.802e-5,"MEAN_MOTION_DDOT":0},{"OBJECT_NAME":"STARLINK-36226","OBJECT_ID":"2025-304T","EPOCH":"2026-03-09T17:12:07.682112","MEAN_MOTION":14.98337076,"ECCENTRICITY":0.00031316,"INCLINATION":70.0021,"RA_OF_ASC_NODE":174.5944,"ARG_OF_PERICENTER":273.3246,"MEAN_ANOMALY":86.7555,"EPHEMERIS_TYPE":0,"CLASSIFICATION_TYPE":"U","NORAD_CAT_ID":67209,"ELEMENT_SET_NO":999,"REV_AT_EPOCH":1388,"BSTAR":0.00030155892,"MEAN_MOTION_DOT":3.508e-5,"MEAN_MOTION_DDOT":0}]
